[{"OBJECT_NAME":"IRIDIUM 157","OBJECT_ID":"2018-030C","EPOCH":"2026-03-09T18:23:07.333440","MEAN_MOTION":14.34217888,"ECCENTRICITY":0.00021073,"INCLINATION":86.4009,"RA_OF_ASC_NODE":332.0022,"ARG_OF_PERICENTER":83.0005,"MEAN_ANOMALY":277.143,"EPHEMERIS_TYPE":0,"CLASSIFICATION_TYPE":"U","NORAD_CAT_ID":43251,"ELEMENT_SET_NO":999,"REV_AT_EPOCH":41588,"BSTAR":0.00012008452,"MEAN_MOTION_DOT":3.56e-6,"MEAN_MOTION_DDOT":0},{"OBJECT_NAME":"FENGYUN 1C DEB","OBJECT_ID":"1999-025QT","EPOCH":"2026-03-09T23:51:39.863232","MEAN_MOTION":14.29286426,"ECCENTRICITY":0.00571699,"INCLINATION":99.4155,"RA_OF_ASC_NODE":253.9934,"ARG_OF_PERICENTER":221.2732,"MEAN_ANOMALY":297.1769,"EPHEMERIS_TYPE":0,"CLASSIFICATION_TYPE":"U","NORAD_CAT_ID":30090,"ELEMENT_SET_NO":999,"REV_AT_EPOCH":99516,"BSTAR":0.00064990414,"MEAN_MOTION_DOT":1.632e-5,"MEAN_MOTION_DDOT":0}]
